[
  {
    "OBJECT_NAME": "STARLINK-1301",
    "OBJECT_ID": "20019B",
    "EPOCH": "2025-11-11T06:30:50.897088",
    "MEAN_MOTION": 15.38589217,
    "ECCENTRICITY": 0.000488,
    "INCLINATION": 53.0523,
    "RA_OF_ASC_NODE": 313.0179,
    "ARG_OF_PERICENTER": 36.6419,
    "MEAN_ANOMALY": 323.4917,
    "EPHEMERIS_TYPE": 0,
    "CLASSIFICATION_TYPE": "U",
    "NORAD_CAT_ID": 45361,
    "ELEMENT_SET_NO": 999,
    "REV_AT_EPOCH": 31223,
    "BSTAR": 0.0031393,
    "MEAN_MOTION_DOT": 0.00123027,
    "MEAN_MOTION_DDOT": 0.0,
    "TLE_LINE1": "1 45361U 20019B   25315.27142242  .00123027  00000+0  31393-2 0  9996",
    "TLE_LINE2": "2 45361  53.0523 313.0179 0004880  36.6419 323.4917 15.38589217312231",
    "COMMENT": "Grouped by shell and plane from TLE"
  },
  {
    "OBJECT_NAME": "STARLINK-1272",
    "OBJECT_ID": "20019AC",
    "EPOCH": "2025-11-11T05:48:46.623456",
    "MEAN_MOTION": 15.35393203,
    "ECCENTRICITY": 0.0004893,
    "INCLINATION": 53.0535,
    "RA_OF_ASC_NODE": 314.0976,
    "ARG_OF_PERICENTER": 44.8274,
    "MEAN_ANOMALY": 315.3122,
    "EPHEMERIS_TYPE": 0,
    "CLASSIFICATION_TYPE": "U",
    "NORAD_CAT_ID": 45386,
    "ELEMENT_SET_NO": 999,
    "REV_AT_EPOCH": 31221,
    "BSTAR": 0.0031643,
    "MEAN_MOTION_DOT": 0.00111655,
    "MEAN_MOTION_DDOT": 0.0,
    "TLE_LINE1": "1 45386U 20019AC  25315.24220629  .00111655  00000+0  31643-2 0  9998",
    "TLE_LINE2": "2 45386  53.0535 314.0976 0004893  44.8274 315.3122 15.35393203312212",
    "COMMENT": "Grouped by shell and plane from TLE"
  },
  {
    "OBJECT_NAME": "STARLINK-1283",
    "OBJECT_ID": "20019AF",
    "EPOCH": "2025-11-11T05:41:32.038368",
    "MEAN_MOTION": 15.31805282,
    "ECCENTRICITY": 0.0006238,
    "INCLINATION": 53.054,
    "RA_OF_ASC_NODE": 312.9828,
    "ARG_OF_PERICENTER": 41.4775,
    "MEAN_ANOMALY": 318.6698,
    "EPHEMERIS_TYPE": 0,
    "CLASSIFICATION_TYPE": "U",
    "NORAD_CAT_ID": 45389,
    "ELEMENT_SET_NO": 999,
    "REV_AT_EPOCH": 31223,
    "BSTAR": 0.0032687,
    "MEAN_MOTION_DOT": 0.00102863,
    "MEAN_MOTION_DDOT": 0.0,
    "TLE_LINE1": "1 45389U 20019AF  25315.23717637  .00102863  00000+0  32687-2 0  9990",
    "TLE_LINE2": "2 45389  53.0540 312.9828 0006238  41.4775 318.6698 15.31805282312235",
    "COMMENT": "Grouped by shell and plane from TLE"
  },
  {
    "OBJECT_NAME": "STARLINK-1497",
    "OBJECT_ID": "20038BD",
    "EPOCH": "2025-11-11T05:28:20.629056",
    "MEAN_MOTION": 15.57207372,
    "ECCENTRICITY": 0.0006458,
    "INCLINATION": 53.0392,
    "RA_OF_ASC_NODE": 310.0162,
    "ARG_OF_PERICENTER": 347.7993,
    "MEAN_ANOMALY": 12.286,
    "EPHEMERIS_TYPE": 0,
    "CLASSIFICATION_TYPE": "U",
    "NORAD_CAT_ID": 45781,
    "ELEMENT_SET_NO": 999,
    "REV_AT_EPOCH": 29972,
    "BSTAR": 0.0030118000000000002,
    "MEAN_MOTION_DOT": 0.00229243,
    "MEAN_MOTION_DDOT": 0.0,
    "TLE_LINE1": "1 45781U 20038BD  25315.22801654  .00229243  00000+0  30118-2 0  9998",
    "TLE_LINE2": "2 45781  53.0392 310.0162 0006458 347.7993  12.2860 15.57207372299724",
    "COMMENT": "Grouped by shell and plane from TLE"
  },
  {
    "OBJECT_NAME": "STARLINK-1687",
    "OBJECT_ID": "20070K",
    "EPOCH": "2025-11-11T06:24:35.624736",
    "MEAN_MOTION": 15.44882139,
    "ECCENTRICITY": 0.0014092,
    "INCLINATION": 53.0517,
    "RA_OF_ASC_NODE": 316.0714,
    "ARG_OF_PERICENTER": 18.6939,
    "MEAN_ANOMALY": 341.4581,
    "EPHEMERIS_TYPE": 0,
    "CLASSIFICATION_TYPE": "U",
    "NORAD_CAT_ID": 46541,
    "ELEMENT_SET_NO": 999,
    "REV_AT_EPOCH": 28210,
    "BSTAR": 0.0033217999999999998,
    "MEAN_MOTION_DOT": 0.00161941,
    "MEAN_MOTION_DDOT": 0.0,
    "TLE_LINE1": "1 46541U 20070K   25315.26707899  .00161941  00000+0  33218-2 0  9993",
    "TLE_LINE2": "2 46541  53.0517 316.0714 0014092  18.6939 341.4581 15.44882139282101",
    "COMMENT": "Grouped by shell and plane from TLE"
  },
  {
    "OBJECT_NAME": "STARLINK-1714",
    "OBJECT_ID": "20070AG",
    "EPOCH": "2025-11-11T07:22:53.416416",
    "MEAN_MOTION": 15.29345476,
    "ECCENTRICITY": 0.0003381,
    "INCLINATION": 53.0552,
    "RA_OF_ASC_NODE": 315.2186,
    "ARG_OF_PERICENTER": 26.8175,
    "MEAN_ANOMALY": 333.2999,
    "EPHEMERIS_TYPE": 0,
    "CLASSIFICATION_TYPE": "U",
    "NORAD_CAT_ID": 46562,
    "ELEMENT_SET_NO": 999,
    "REV_AT_EPOCH": 28212,
    "BSTAR": 0.0037137,
    "MEAN_MOTION_DOT": 0.00108361,
    "MEAN_MOTION_DDOT": 0.0,
    "TLE_LINE1": "1 46562U 20070AG  25315.30756269  .00108361  00000+0  37137-2 0  9997",
    "TLE_LINE2": "2 46562  53.0552 315.2186 0003381  26.8175 333.2999 15.29345476282124",
    "COMMENT": "Grouped by shell and plane from TLE"
  },
  {
    "OBJECT_NAME": "STARLINK-1730",
    "OBJECT_ID": "20070AH",
    "EPOCH": "2025-11-11T07:19:55.874784",
    "MEAN_MOTION": 15.24755366,
    "ECCENTRICITY": 0.0003683,
    "INCLINATION": 53.0371,
    "RA_OF_ASC_NODE": 316.7569,
    "ARG_OF_PERICENTER": 354.9912,
    "MEAN_ANOMALY": 5.1047,
    "EPHEMERIS_TYPE": 0,
    "CLASSIFICATION_TYPE": "U",
    "NORAD_CAT_ID": 46563,
    "ELEMENT_SET_NO": 999,
    "REV_AT_EPOCH": 28210,
    "BSTAR": 0.0035117,
    "MEAN_MOTION_DOT": 0.00088874,
    "MEAN_MOTION_DDOT": 0.0,
    "TLE_LINE1": "1 46563U 20070AH  25315.30550781  .00088874  00000+0  35117-2 0  9991",
    "TLE_LINE2": "2 46563  53.0371 316.7569 0003683 354.9912   5.1047 15.24755366282109",
    "COMMENT": "Grouped by shell and plane from TLE"
  },
  {
    "OBJECT_NAME": "STARLINK-3349",
    "OBJECT_ID": "22001L",
    "EPOCH": "2025-11-11T06:11:55.739328",
    "MEAN_MOTION": 15.25407724,
    "ECCENTRICITY": 0.0007026,
    "INCLINATION": 53.2152,
    "RA_OF_ASC_NODE": 313.0029,
    "ARG_OF_PERICENTER": 336.472,
    "MEAN_ANOMALY": 23.5957,
    "EPHEMERIS_TYPE": 0,
    "CLASSIFICATION_TYPE": "U",
    "NORAD_CAT_ID": 50813,
    "ELEMENT_SET_NO": 999,
    "REV_AT_EPOCH": 21292,
    "BSTAR": 0.00073275,
    "MEAN_MOTION_DOT": 0.00018466,
    "MEAN_MOTION_DDOT": 0.0,
    "TLE_LINE1": "1 50813U 22001L   25315.25828402  .00018466  00000+0  73275-3 0  9990",
    "TLE_LINE2": "2 50813  53.2152 313.0029 0007026 336.4720  23.5957 15.25407724212929",
    "COMMENT": "Grouped by shell and plane from TLE"
  },
  {
    "OBJECT_NAME": "STARLINK-31071",
    "OBJECT_ID": "23200P",
    "EPOCH": "2025-11-11T07:06:28.400256",
    "MEAN_MOTION": 15.27609513,
    "ECCENTRICITY": 0.0001336,
    "INCLINATION": 43.0001,
    "RA_OF_ASC_NODE": 317.3021,
    "ARG_OF_PERICENTER": 285.1122,
    "MEAN_ANOMALY": 74.9582,
    "EPHEMERIS_TYPE": 0,
    "CLASSIFICATION_TYPE": "U",
    "NORAD_CAT_ID": 58602,
    "ELEMENT_SET_NO": 999,
    "REV_AT_EPOCH": 10738,
    "BSTAR": 0.00023748,
    "MEAN_MOTION_DOT": 6.284e-05,
    "MEAN_MOTION_DDOT": 0.0,
    "TLE_LINE1": "1 58602U 23200P   25315.29616204  .00006284  00000+0  23748-3 0  9990",
    "TLE_LINE2": "2 58602  43.0001 317.3021 0001336 285.1122  74.9582 15.27609513107385",
    "COMMENT": "Grouped by shell and plane from TLE"
  },
  {
    "OBJECT_NAME": "STARLINK-31374",
    "OBJECT_ID": "24064G",
    "EPOCH": "2025-11-11T07:21:54.869184",
    "MEAN_MOTION": 15.2760771,
    "ECCENTRICITY": 6.72e-05,
    "INCLINATION": 42.9989,
    "RA_OF_ASC_NODE": 313.6705,
    "ARG_OF_PERICENTER": 261.6837,
    "MEAN_ANOMALY": 98.3938,
    "EPHEMERIS_TYPE": 0,
    "CLASSIFICATION_TYPE": "U",
    "NORAD_CAT_ID": 59404,
    "ELEMENT_SET_NO": 999,
    "REV_AT_EPOCH": 9145,
    "BSTAR": 0.00082454,
    "MEAN_MOTION_DOT": 0.00022516,
    "MEAN_MOTION_DDOT": 0.0,
    "TLE_LINE1": "1 59404U 24064G   25315.30688506  .00022516  00000+0  82454-3 0  9991",
    "TLE_LINE2": "2 59404  42.9989 313.6705 0000672 261.6837  98.3938 15.27607710 91453",
    "COMMENT": "Grouped by shell and plane from TLE"
  },
  {
    "OBJECT_NAME": "STARLINK-31388",
    "OBJECT_ID": "24076B",
    "EPOCH": "2025-11-11T07:08:27.250368",
    "MEAN_MOTION": 15.27595465,
    "ECCENTRICITY": 0.0001602,
    "INCLINATION": 43.0008,
    "RA_OF_ASC_NODE": 317.852,
    "ARG_OF_PERICENTER": 270.9935,
    "MEAN_ANOMALY": 89.0733,
    "EPHEMERIS_TYPE": 0,
    "CLASSIFICATION_TYPE": "U",
    "NORAD_CAT_ID": 59565,
    "ELEMENT_SET_NO": 999,
    "REV_AT_EPOCH": 8839,
    "BSTAR": 0.00031072,
    "MEAN_MOTION_DOT": 8.302e-05,
    "MEAN_MOTION_DDOT": 0.0,
    "TLE_LINE1": "1 59565U 24076B   25315.29753762  .00008302  00000+0  31072-3 0  9994",
    "TLE_LINE2": "2 59565  43.0008 317.8520 0001602 270.9935  89.0733 15.27595465 88394",
    "COMMENT": "Grouped by shell and plane from TLE"
  },
  {
    "OBJECT_NAME": "STARLINK-31332",
    "OBJECT_ID": "24076C",
    "EPOCH": "2025-11-11T01:37:52.653792",
    "MEAN_MOTION": 15.27571853,
    "ECCENTRICITY": 0.0001277,
    "INCLINATION": 43.0047,
    "RA_OF_ASC_NODE": 318.6871,
    "ARG_OF_PERICENTER": 258.5129,
    "MEAN_ANOMALY": 101.558,
    "EPHEMERIS_TYPE": 0,
    "CLASSIFICATION_TYPE": "U",
    "NORAD_CAT_ID": 59566,
    "ELEMENT_SET_NO": 999,
    "REV_AT_EPOCH": 8836,
    "BSTAR": 5.3489e-05,
    "MEAN_MOTION_DOT": 1.21e-05,
    "MEAN_MOTION_DDOT": 0.0,
    "TLE_LINE1": "1 59566U 24076C   25315.06797053  .00001210  00000+0  53489-4 0  9999",
    "TLE_LINE2": "2 59566  43.0047 318.6871 0001277 258.5129 101.5580 15.27571853 88363",
    "COMMENT": "Grouped by shell and plane from TLE"
  },
  {
    "OBJECT_NAME": "STARLINK-31689",
    "OBJECT_ID": "24076D",
    "EPOCH": "2025-11-11T00:43:16.958496",
    "MEAN_MOTION": 15.27585836,
    "ECCENTRICITY": 4.48e-05,
    "INCLINATION": 42.9984,
    "RA_OF_ASC_NODE": 315.8095,
    "ARG_OF_PERICENTER": 318.0866,
    "MEAN_ANOMALY": 41.9951,
    "EPHEMERIS_TYPE": 0,
    "CLASSIFICATION_TYPE": "U",
    "NORAD_CAT_ID": 59567,
    "ELEMENT_SET_NO": 999,
    "REV_AT_EPOCH": 8839,
    "BSTAR": 0.00018683,
    "MEAN_MOTION_DOT": 4.884e-05,
    "MEAN_MOTION_DDOT": 0.0,
    "TLE_LINE1": "1 59567U 24076D   25315.03005739  .00004884  00000+0  18683-3 0  9996",
    "TLE_LINE2": "2 59567  42.9984 315.8095 0000448 318.0866  41.9951 15.27585836 88396",
    "COMMENT": "Grouped by shell and plane from TLE"
  }
]